[{"OBJECT_NAME":"FORMOSAT 7-3","OBJECT_ID":"2019-036E","EPOCH":"2026-03-09T19:49:52.754592","MEAN_MOTION":15.08933962,"ECCENTRICITY":0.00010606,"INCLINATION":23.9981,"RA_OF_ASC_NODE":141.9797,"ARG_OF_PERICENTER":150.4425,"MEAN_ANOMALY":209.6139,"EPHEMERIS_TYPE":0,"CLASSIFICATION_TYPE":"U","NORAD_CAT_ID":44343,"ELEMENT_SET_NO":999,"REV_AT_EPOCH":36821,"BSTAR":0.00037650049,"MEAN_MOTION_DOT":6.445e-5,"MEAN_MOTION_DDOT":0},{"OBJECT_NAME":"STARLINK-3900","OBJECT_ID":"2022-049L","EPOCH":"2026-03-09T22:31:04.534752","MEAN_MOTION":15.08835619,"ECCENTRICITY":0.00016983,"INCLINATION":53.2182,"RA_OF_ASC_NODE":48.005,"ARG_OF_PERICENTER":80.2222,"MEAN_ANOMALY":279.8962,"EPHEMERIS_TYPE":0,"CLASSIFICATION_TYPE":"U","NORAD_CAT_ID":52461,"ELEMENT_SET_NO":999,"REV_AT_EPOCH":21242,"BSTAR":8.4100662e-5,"MEAN_MOTION_DOT":1.051e-5,"MEAN_MOTION_DDOT":0}]
